ONEWEB-0721             
1 56725U 23068R   26171.16625916  .00000105  00000+0  21610-3 0  9995
2 56725  86.6765  84.5656 0001892  77.8720 282.2625 13.22469836158331
ONEWEB-0015             
1 61594U 24188A   26171.28503106 -.00000123  00000+0 -38367-3 0  9997
2 61594  87.8881  20.4763 0002104  72.5583 287.5775 13.11414028 84868
ONEWEB-0687             
1 61595U 24188B   26170.96448522  .00000036  00000+0  58525-4 0  9992
2 61595  87.9126   5.3238 0002353  85.7118 274.4282 13.17648647 86263
ONEWEB-0688             
1 61596U 24188C   26170.91723724 -.00000128  00000+0 -36269-3 0  9992
2 61596  87.9128   5.3330 0002570  62.2046 297.9346 13.17647812 86253
ONEWEB-0689             
1 61597U 24188D   26171.01374689 -.00000227  00000+0 -67668-3 0  9994
2 61597  87.8899  20.4888 0002098  90.8364 269.3005 13.11418708 84829
ONEWEB-0690             
1 61598U 24188E   26171.02393909  .00000387  00000+0  10565-2 0  9990
2 61598  87.8892  20.4983 0001220  78.2636 281.8629 13.11418066 85006
ONEWEB-0691             
1 61599U 24188F   26171.01885299  .00000272  00000+0  73071-3 0  9993
2 61599  87.8904  20.4082 0002112  78.3954 281.7411 13.11419307 84855
ONEWEB-0692             
1 61600U 24188G   26170.96290199  .00000519  00000+0  14283-2 0  9991
2 61600  87.8883  20.5321 0001993 109.7253 250.4091 13.11415297 84837
ONEWEB-0693             
1 61601U 24188H   26170.92904652  .00000023  00000+0  26958-4 0  9998
2 61601  87.9122   5.3506 0001207  70.2374 289.8888 13.17648731 86249
ONEWEB-0695             
1 61602U 24188J   26171.01545916  .00000060  00000+0  13238-3 0  9991
2 61602  87.8879  20.5134 0002162  98.9166 261.2207 13.11419487 84831
ONEWEB-0697             
1 61603U 24188K   26171.27655394 -.00000128  00000+0 -39732-3 0  9996
2 61603  87.8891  20.4522 0001615 123.3523 236.7760 13.11424043 84855
ONEWEB-0698             
1 61604U 24188L   26171.02563412  .00000516  00000+0  14203-2 0  9993
2 61604  87.8883  20.5158 0001091 124.6164 235.5067 13.11417321 84843
ONEWEB-0699             
1 61605U 24188M   26171.04062102 -.00000347  00000+0 -10298-2 0  9990
2 61605  87.8829  35.6983 0001711 105.5398 254.5918 13.10424947 83681
ONEWEB-0700             
1 61606U 24188N   26171.04230279  .00000628  00000+0  17602-2 0  9999
2 61606  87.8849  35.6070 0001966 103.3062 256.8284 13.10413715 83678
ONEWEB-0701             
1 61607U 24188P   26170.60090671  .00000270  00000+0  73619-3 0  9995
2 61607  87.8837  35.7849 0001709 110.9427 249.1884 13.10345022 83626
ONEWEB-0702             
1 61608U 24188Q   26170.61361436 -.00000719  00000+0 -20642-2 0  9994
2 61608  87.8902  20.5041 0002210 114.0455 246.0904 13.11417196 84803
ONEWEB-0704             
1 61609U 24188R   26171.04732698 -.00004882  00000+0 -14019-1 0  9990
2 61609  87.8838  35.6857 0001713 106.8634 253.2681 13.10421529 83668
ONEWEB-0705             
1 61610U 24188S   26170.59420105 -.00000440  00000+0 -12962-2 0  9990
2 61610  87.8843  35.7813 0002726  95.3646 264.7793 13.10376427 75779
ONEWEB-0706             
1 61611U 24188T   26170.65549400 -.00000763  00000+0 -22196-2 0  9996
2 61611  87.8837  35.7737 0002110  99.3922 260.7444 13.10437834 83707
ONEWEB-0707             
1 61612U 24188U   26171.04398355  .00000286  00000+0  78389-3 0  9996
2 61612  87.8840  35.6911 0002145 100.5166 259.6204 13.10407845 83696
ONEWEB-0708             
1 61613U 24188V   26170.90971229  .00000387  00000+0  10744-2 0  9990
2 61613  87.8832  35.7356 0002375  81.2827 278.8570 13.10329595 83656
